{
  "type": "FeatureCollection",
  "features": [
    {
      "type": "Feature",
      "properties": {
        "norad_id": 31464,
        "name": "FENGYUN 1C DEB",
        "group": "fengyun-1c-debris",
        "lat": -44.45610067447109,
        "lon": 33.997202286534396,
        "alt_km": 836.87182412318,
        "timestamp": "2025-12-04T07:39:36.417361+00:00",
        "meta_object_name": "FENGYUN 1C DEB",
        "meta_object_id": "1999-025BVC",
        "meta_epoch": "2025-12-02T22:27:53.152704",
        "meta_mean_motion": 14.12457967,
        "meta_eccentricity": 0.00429431,
        "meta_inclination": 98.7961,
        "meta_ra_of_asc_node": 23.9012,
        "meta_arg_of_pericenter": 270.6207,
        "meta_mean_anomaly": 214.8358,
        "meta_ephemeris_type": 0,
        "meta_classification_type": "U",
        "meta_norad_cat_id": 31464,
        "meta_element_set_no": 999,
        "meta_rev_at_epoch": 94541,
        "meta_bstar": 0.00040163785,
        "meta_mean_motion_dot": 7.04e-06,
        "meta_mean_motion_ddot": 0,
        "tle_line1": "1 31464U 99025BVC 25336.93603186  .00000704  00000+0  40164-3 0  9996",
        "tle_line2": "2 31464  98.7961  23.9012 0042943 270.6207 214.8358 14.12457967945413"
      },
      "geometry": {
        "type": "Point",
        "coordinates": [
          33.997202286534396,
          -44.45610067447109
        ]
      }
    },
    {
      "type": "Feature",
      "properties": {
        "norad_id": 31466,
        "name": "FENGYUN 1C DEB",
        "group": "fengyun-1c-debris",
        "lat": 26.84841830203551,
        "lon": -96.59396923961437,
        "alt_km": 699.4908829696806,
        "timestamp": "2025-12-04T07:39:36.417370+00:00",
        "meta_object_name": "FENGYUN 1C DEB",
        "meta_object_id": "1999-025BVE",
        "meta_epoch": "2025-12-03T01:04:01.231680",
        "meta_mean_motion": 14.18491736,
        "meta_eccentricity": 0.02996915,
        "meta_inclination": 99.0852,
        "meta_ra_of_asc_node": 266.7448,
        "meta_arg_of_pericenter": 336.5012,
        "meta_mean_anomaly": 22.2703,
        "meta_ephemeris_type": 0,
        "meta_classification_type": "U",
        "meta_norad_cat_id": 31466,
        "meta_element_set_no": 999,
        "meta_rev_at_epoch": 96191,
        "meta_bstar": 0.00038951003,
        "meta_mean_motion_dot": 1.201e-05,
        "meta_mean_motion_ddot": 0,
        "tle_line1": "1 31466U 99025BVE 25337.04445870  .00001201  00000+0  38951-3 0  9999",
        "tle_line2": "2 31466  99.0852 266.7448 0299691 336.5012  22.2703 14.18491736961914"
      },
      "geometry": {
        "type": "Point",
        "coordinates": [
          -96.59396923961437,
          26.84841830203551
        ]
      }
    },
    {
      "type": "Feature",
      "properties": {
        "norad_id": 31468,
        "name": "FENGYUN 1C DEB",
        "group": "fengyun-1c-debris",
        "lat": -21.899307793573296,
        "lon": -21.9701141558386,
        "alt_km": 838.802615236903,
        "timestamp": "2025-12-04T07:39:36.417379+00:00",
        "meta_object_name": "FENGYUN 1C DEB",
        "meta_object_id": "1999-025BVG",
        "meta_epoch": "2025-11-30T05:49:01.308864",
        "meta_mean_motion": 14.46528852,
        "meta_eccentricity": 0.01658761,
        "meta_inclination": 98.1681,
        "meta_ra_of_asc_node": 330.7879,
        "meta_arg_of_pericenter": 205.029,
        "meta_mean_anomaly": 154.2795,
        "meta_ephemeris_type": 0,
        "meta_classification_type": "U",
        "meta_norad_cat_id": 31468,
        "meta_element_set_no": 999,
        "meta_rev_at_epoch": 67191,
        "meta_bstar": 0.00042897365,
        "meta_mean_motion_dot": 1.784e-05,
        "meta_mean_motion_ddot": 0,
        "tle_line1": "1 31468U 99025BVG 25334.24237626  .00001784  00000+0  42897-3 0  9998",
        "tle_line2": "2 31468  98.1681 330.7879 0165876 205.0290 154.2795 14.46528852671917"
      },
      "geometry": {
        "type": "Point",
        "coordinates": [
          -21.9701141558386,
          -21.899307793573296
        ]
      }
    },
    {
      "type": "Feature",
      "properties": {
        "norad_id": 31473,
        "name": "FENGYUN 1C DEB",
        "group": "fengyun-1c-debris",
        "lat": -80.48627731718143,
        "lon": 75.35590762449044,
        "alt_km": 827.341723640754,
        "timestamp": "2025-12-04T07:39:36.417388+00:00",
        "meta_object_name": "FENGYUN 1C DEB",
        "meta_object_id": "1999-025BVM",
        "meta_epoch": "2025-11-30T20:53:14.785728",
        "meta_mean_motion": 14.296526,
        "meta_eccentricity": 0.00655797,
        "meta_inclination": 98.5473,
        "meta_ra_of_asc_node": 8.1551,
        "meta_arg_of_pericenter": 49.9746,
        "meta_mean_anomaly": 124.3873,
        "meta_ephemeris_type": 0,
        "meta_classification_type": "U",
        "meta_norad_cat_id": 31473,
        "meta_element_set_no": 999,
        "meta_rev_at_epoch": 69351,
        "meta_bstar": 0.0014064664,
        "meta_mean_motion_dot": 3.647e-05,
        "meta_mean_motion_ddot": 0,
        "tle_line1": "1 31473U 99025BVM 25334.87031002  .00003647  00000+0  14065-2 0  9998",
        "tle_line2": "2 31473  98.5473   8.1551 0065579  49.9746 124.3873 14.29652600693514"
      },
      "geometry": {
        "type": "Point",
        "coordinates": [
          75.35590762449044,
          -80.48627731718143
        ]
      }
    },
    {
      "type": "Feature",
      "properties": {
        "norad_id": 31474,
        "name": "FENGYUN 1C DEB",
        "group": "fengyun-1c-debris",
        "lat": 57.90278828063346,
        "lon": 9.151357868438662,
        "alt_km": 902.7076526019482,
        "timestamp": "2025-12-04T07:39:36.417397+00:00",
        "meta_object_name": "FENGYUN 1C DEB",
        "meta_object_id": "1999-025BVN",
        "meta_epoch": "2025-12-01T23:11:47.345280",
        "meta_mean_motion": 14.10510855,
        "meta_eccentricity": 0.00712384,
        "meta_inclination": 99.1455,
        "meta_ra_of_asc_node": 21.6407,
        "meta_arg_of_pericenter": 235.7586,
        "meta_mean_anomaly": 123.6822,
        "meta_ephemeris_type": 0,
        "meta_classification_type": "U",
        "meta_norad_cat_id": 31474,
        "meta_element_set_no": 999,
        "meta_rev_at_epoch": 94818,
        "meta_bstar": 0.0015506269,
        "meta_mean_motion_dot": 2.781e-05,
        "meta_mean_motion_ddot": 0,
        "tle_line1": "1 31474U 99025BVN 25335.96652020  .00002781  00000+0  15506-2 0  9998",
        "tle_line2": "2 31474  99.1455  21.6407 0071238 235.7586 123.6822 14.10510855948185"
      },
      "geometry": {
        "type": "Point",
        "coordinates": [
          9.151357868438662,
          57.90278828063346
        ]
      }
    },
    {
      "type": "Feature",
      "properties": {
        "norad_id": 31475,
        "name": "FENGYUN 1C DEB",
        "group": "fengyun-1c-debris",
        "lat": -77.17316883005557,
        "lon": 2.9250452538288267,
        "alt_km": 864.8334897958985,
        "timestamp": "2025-12-04T07:39:36.417406+00:00",
        "meta_object_name": "FENGYUN 1C DEB",
        "meta_object_id": "1999-025BVP",
        "meta_epoch": "2025-12-03T10:25:51.057408",
        "meta_mean_motion": 14.38132444,
        "meta_eccentricity": 0.02114587,
        "meta_inclination": 98.9405,
        "meta_ra_of_asc_node": 225.7449,
        "meta_arg_of_pericenter": 134.4708,
        "meta_mean_anomaly": 227.3988,
        "meta_ephemeris_type": 0,
        "meta_classification_type": "U",
        "meta_norad_cat_id": 31475,
        "meta_element_set_no": 999,
        "meta_rev_at_epoch": 95945,
        "meta_bstar": 0.00080491968,
        "meta_mean_motion_dot": 3.112e-05,
        "meta_mean_motion_ddot": 0,
        "tle_line1": "1 31475U 99025BVP 25337.43461872  .00003112  00000+0  80492-3 0  9992",
        "tle_line2": "2 31475  98.9405 225.7449 0211458 134.4708 227.3988 14.38132444959453"
      },
      "geometry": {
        "type": "Point",
        "coordinates": [
          2.9250452538288267,
          -77.17316883005557
        ]
      }
    },
    {
      "type": "Feature",
      "properties": {
        "norad_id": 31476,
        "name": "FENGYUN 1C DEB",
        "group": "fengyun-1c-debris",
        "lat": -2.081125013619081,
        "lon": -128.5827707881474,
        "alt_km": 784.5410858329387,
        "timestamp": "2025-12-04T07:39:36.417415+00:00",
        "meta_object_name": "FENGYUN 1C DEB",
        "meta_object_id": "1999-025BVQ",
        "meta_epoch": "2025-12-03T03:47:09.401280",
        "meta_mean_motion": 14.21990111,
        "meta_eccentricity": 0.00531486,
        "meta_inclination": 98.8992,
        "meta_ra_of_asc_node": 50.572,
        "meta_arg_of_pericenter": 198.6791,
        "meta_mean_anomaly": 161.2437,
        "meta_ephemeris_type": 0,
        "meta_classification_type": "U",
        "meta_norad_cat_id": 31476,
        "meta_element_set_no": 999,
        "meta_rev_at_epoch": 95563,
        "meta_bstar": 0.0021827364,
        "meta_mean_motion_dot": 4.849e-05,
        "meta_mean_motion_ddot": 0,
        "tle_line1": "1 31476U 99025BVQ 25337.15774770  .00004849  00000+0  21827-2 0  9990",
        "tle_line2": "2 31476  98.8992  50.5720 0053148 198.6791 161.2437 14.21990111955630"
      },
      "geometry": {
        "type": "Point",
        "coordinates": [
          -128.5827707881474,
          -2.081125013619081
        ]
      }
    }
  ]
}